{
  "norad_id": 66282,
  "name": "STARLINK-35776",
  "history": [
    {
      "epoch": "2026-04-14T11:56:50.673408Z",
      "apogee_km": 476.5607065387003,
      "perigee_km": 473.863502465133,
      "latitude_deg": -2.818600490863172e-05,
      "longitude_deg": 3.3958642264593855,
      "height_km": 476.226308874368,
      "semi_major_axis_km": 6853.349104501916,
      "eccentricity": 0.00019678,
      "inclination_deg": 53.157,
      "raan_deg": 25.2804,
      "arg_perigee_deg": 94.9953,
      "mean_anomaly_deg": 265.1272,
      "mean_motion_rev_day": 15.30200993
    },
    {
      "epoch": "2026-04-15T03:37:22.808352Z",
      "apogee_km": 476.11721397902966,
      "perigee_km": 474.3668609728584,
      "latitude_deg": -3.2690900023614136e-05,
      "longitude_deg": 124.587892601396,
      "height_km": 476.27223425959556,
      "semi_major_axis_km": 6853.379037475944,
      "eccentricity": 0.0001277,
      "inclination_deg": 53.1599,
      "raan_deg": 22.2501,
      "arg_perigee_deg": 98.683,
      "mean_anomaly_deg": 261.4315,
      "mean_motion_rev_day": 15.30190968
    },
    {
      "epoch": "2026-04-16T10:58:27.427296Z",
      "apogee_km": 476.4668219662535,
      "perigee_km": 473.98179315613197,
      "latitude_deg": -4.231287611270526e-06,
      "longitude_deg": 6.962219326270429,
      "height_km": 475.97836982768354,
      "semi_major_axis_km": 6853.361307561193,
      "eccentricity": 0.0001813,
      "inclination_deg": 53.1603,
      "raan_deg": 16.1812,
      "arg_perigee_deg": 83.3773,
      "mean_anomaly_deg": 276.7434,
      "mean_motion_rev_day": 15.30196906
    },
    {
      "epoch": "2026-04-17T21:27:37.666944Z",
      "apogee_km": 476.91007029366756,
      "perigee_km": 473.4654522021701,
      "latitude_deg": 2.6639557345358515e-05,
      "longitude_deg": -158.41961780428315,
      "height_km": 475.76614205642767,
      "semi_major_axis_km": 6853.324761247919,
      "eccentricity": 0.00025131,
      "inclination_deg": 53.1603,
      "raan_deg": 9.5083,
      "arg_perigee_deg": 79.3605,
      "mean_anomaly_deg": 280.7679,
      "mean_motion_rev_day": 15.30209146
    },
    {
      "epoch": "2026-04-18T10:00:02.810880Z",
      "apogee_km": 475.8204778641202,
      "perigee_km": 474.5660442931321,
      "latitude_deg": 9.54315624975824e-06,
      "longitude_deg": 10.533990627915646,
      "height_km": 475.9072206275783,
      "semi_major_axis_km": 6853.330261078626,
      "eccentricity": 9.152e-05,
      "inclination_deg": 53.1572,
      "raan_deg": 7.0817,
      "arg_perigee_deg": 72.9073,
      "mean_anomaly_deg": 287.2028,
      "mean_motion_rev_day": 15.30207304
    },
    {
      "epoch": "2026-04-19T09:30:50.132448Z",
      "apogee_km": 475.9170003133113,
      "perigee_km": 474.40625916337194,
      "latitude_deg": -1.8107632484756966e-05,
      "longitude_deg": 12.318345775761706,
      "height_km": 475.3298420256913,
      "semi_major_axis_km": 6853.298629738341,
      "eccentricity": 0.00011022,
      "inclination_deg": 53.1605,
      "raan_deg": 2.5289,
      "arg_perigee_deg": 14.523,
      "mean_anomaly_deg": 345.5802,
      "mean_motion_rev_day": 15.30217898
    },
    {
      "epoch": "2026-04-20T02:45:26.216064Z",
      "apogee_km": 476.0789689749481,
      "perigee_km": 474.41592670483533,
      "latitude_deg": 3.814336963864808e-06,
      "longitude_deg": 109.62545320472286,
      "height_km": 475.8117982386626,
      "semi_major_axis_km": 6853.384447839891,
      "eccentricity": 0.00012133,
      "inclination_deg": 53.159,
      "raan_deg": 359.1945,
      "arg_perigee_deg": 66.3296,
      "mean_anomaly_deg": 293.7832,
      "mean_motion_rev_day": 15.30189156
    },
    {
      "epoch": "2026-04-21T19:30:49.368960Z",
      "apogee_km": 476.1632297715587,
      "perigee_km": 474.21962582943524,
      "latitude_deg": -2.9650449474149278e-05,
      "longitude_deg": -151.28605337522998,
      "height_km": 476.1886851092029,
      "semi_major_axis_km": 6853.328427800497,
      "eccentricity": 0.0001418,
      "inclination_deg": 53.1586,
      "raan_deg": 351.3033,
      "arg_perigee_deg": 95.8779,
      "mean_anomaly_deg": 264.2383,
      "mean_motion_rev_day": 15.30207918
    },
    {
      "epoch": "2026-04-22T01:47:02.467104Z",
      "apogee_km": 476.0607945330257,
      "perigee_km": 474.50726105444573,
      "latitude_deg": 2.9394284083666476e-05,
      "longitude_deg": 113.19120206971924,
      "height_km": 476.04961525272034,
      "semi_major_axis_km": 6853.421027793735,
      "eccentricity": 0.00011334,
      "inclination_deg": 53.159,
      "raan_deg": 350.0926,
      "arg_perigee_deg": 80.1727,
      "mean_anomaly_deg": 279.9402,
      "mean_motion_rev_day": 15.30176905
    },
    {
      "epoch": "2026-04-23T01:17:50.231904Z",
      "apogee_km": 475.9748945115516,
      "perigee_km": 474.4053455345238,
      "latitude_deg": 6.144493463431026e-05,
      "longitude_deg": 114.976347998661,
      "height_km": 475.93098496937046,
      "semi_major_axis_km": 6853.327120023037,
      "eccentricity": 0.00011451,
      "inclination_deg": 53.1602,
      "raan_deg": 345.5424,
      "arg_perigee_deg": 78.4276,
      "mean_anomaly_deg": 281.6854,
      "mean_motion_rev_day": 15.30208356
    },
    {
      "epoch": "2026-04-24T21:11:19.211136Z",
      "apogee_km": 475.95534680877427,
      "perigee_km": 474.4407597619984,
      "latitude_deg": -2.2801028400060038e-05,
      "longitude_deg": 166.3076809022692,
      "height_km": 476.1237457830124,
      "semi_major_axis_km": 6853.3350532853865,
      "eccentricity": 0.0001105,
      "inclination_deg": 53.1609,
      "raan_deg": 337.0471,
      "arg_perigee_deg": 92.0652,
      "mean_anomaly_deg": 268.0475,
      "mean_motion_rev_day": 15.30205699
    },
    {
      "epoch": "2026-04-25T20:42:07.045056Z",
      "apogee_km": 476.0841716939467,
      "perigee_km": 474.2762666115341,
      "latitude_deg": 8.47893246790353e-06,
      "longitude_deg": 168.08763965859387,
      "height_km": 476.71751682617173,
      "semi_major_axis_km": 6853.31721915274,
      "eccentricity": 0.0001319,
      "inclination_deg": 53.1619,
      "raan_deg": 332.492,
      "arg_perigee_deg": 134.9447,
      "mean_anomaly_deg": 225.1661,
      "mean_motion_rev_day": 15.30211672
    },
    {
      "epoch": "2026-04-26T20:12:55.452672Z",
      "apogee_km": 475.9731104577695,
      "perigee_km": 474.4161705756778,
      "latitude_deg": 8.612673547140959e-06,
      "longitude_deg": 169.8751788813234,
      "height_km": 475.78090898437966,
      "semi_major_axis_km": 6853.331640516723,
      "eccentricity": 0.00011359,
      "inclination_deg": 53.1613,
      "raan_deg": 327.9469,
      "arg_perigee_deg": 66.3514,
      "mean_anomaly_deg": 293.7606,
      "mean_motion_rev_day": 15.30206842
    },
    {
      "epoch": "2026-04-27T19:43:43.263264Z",
      "apogee_km": 475.8055192782076,
      "perigee_km": 474.62537198706923,
      "latitude_deg": 3.082664847775257e-05,
      "longitude_deg": 171.6570292679136,
      "height_km": 476.2543387552453,
      "semi_major_axis_km": 6853.352445632638,
      "eccentricity": 8.61e-05,
      "inclination_deg": 53.1614,
      "raan_deg": 323.3936,
      "arg_perigee_deg": 103.7341,
      "mean_anomaly_deg": 256.3756,
      "mean_motion_rev_day": 15.30199874
    },
    {
      "epoch": "2026-04-28T17:40:47.072352Z",
      "apogee_km": 478.34098037874173,
      "perigee_km": 476.09927859739946,
      "latitude_deg": -3.483117728753383e-05,
      "longitude_deg": -162.75628810206032,
      "height_km": 478.7988806740012,
      "semi_major_axis_km": 6855.35712948807,
      "eccentricity": 0.0001635,
      "inclination_deg": 53.1605,
      "raan_deg": 319.1477,
      "arg_perigee_deg": 127.4099,
      "mean_anomaly_deg": 232.705,
      "mean_motion_rev_day": 15.29528718
    },
    {
      "epoch": "2026-04-29T20:19:22.463328Z",
      "apogee_km": 476.02108202984346,
      "perigee_km": 474.38313398302853,
      "latitude_deg": 4.147908393055294e-05,
      "longitude_deg": 151.34421088485612,
      "height_km": 476.0629402866744,
      "semi_major_axis_km": 6853.339108006436,
      "eccentricity": 0.0001195,
      "inclination_deg": 53.1582,
      "raan_deg": 313.9898,
      "arg_perigee_deg": 87.4001,
      "mean_anomaly_deg": 272.7137,
      "mean_motion_rev_day": 15.30204341
    },
    {
      "epoch": "2026-04-29T21:53:25.598112Z",
      "apogee_km": 475.8836972043946,
      "perigee_km": 474.5212533167123,
      "latitude_deg": -4.905320617754716e-05,
      "longitude_deg": 127.46320537387928,
      "height_km": 476.1133976371823,
      "semi_major_axis_km": 6853.339475260553,
      "eccentricity": 9.94e-05,
      "inclination_deg": 53.1599,
      "raan_deg": 313.6863,
      "arg_perigee_deg": 91.0494,
      "mean_anomaly_deg": 269.062,
      "mean_motion_rev_day": 15.30204218
    },
    {
      "epoch": "2026-05-02T04:45:17.330400Z",
      "apogee_km": 475.90491879586534,
      "perigee_km": 474.4917610487728,
      "latitude_deg": -2.1025497395928477e-05,
      "longitude_deg": 11.624273207469226,
      "height_km": 475.833432049781,
      "semi_major_axis_km": 6853.335339922319,
      "eccentricity": 0.0001031,
      "inclination_deg": 53.1565,
      "raan_deg": 303.0661,
      "arg_perigee_deg": 68.1442,
      "mean_anomaly_deg": 291.9668,
      "mean_motion_rev_day": 15.30205603
    }
  ]
}